[{"OBJECT_NAME":"NOAA 17","OBJECT_ID":"2002-032A","EPOCH":"2026-03-07T15:23:23.905824","MEAN_MOTION":14.26188056,"ECCENTRICITY":0.00106165,"INCLINATION":98.8538,"RA_OF_ASC_NODE":31.2492,"ARG_OF_PERICENTER":288.3006,"MEAN_ANOMALY":71.7018,"EPHEMERIS_TYPE":0,"CLASSIFICATION_TYPE":"U","NORAD_CAT_ID":27453,"ELEMENT_SET_NO":999,"REV_AT_EPOCH":23251,"BSTAR":0.0001694594,"MEAN_MOTION_DOT":3.6e-6,"MEAN_MOTION_DDOT":0},{"OBJECT_NAME":"NOAA 18","OBJECT_ID":"2005-018A","EPOCH":"2026-03-07T15:08:27.539520","MEAN_MOTION":14.13710358,"ECCENTRICITY":0.0015312,"INCLINATION":98.8159,"RA_OF_ASC_NODE":147.767,"ARG_OF_PERICENTER":80.9272,"MEAN_ANOMALY":279.3633,"EPHEMERIS_TYPE":0,"CLASSIFICATION_TYPE":"U","NORAD_CAT_ID":28654,"ELEMENT_SET_NO":999,"REV_AT_EPOCH":7196,"BSTAR":6.8344421e-5,"MEAN_MOTION_DOT":8.6e-7,"MEAN_MOTION_DDOT":0},{"OBJECT_NAME":"NOAA 19","OBJECT_ID":"2009-005A","EPOCH":"2026-03-07T14:40:50.674368","MEAN_MOTION":14.13456312,"ECCENTRICITY":0.00129692,"INCLINATION":98.961,"RA_OF_ASC_NODE":137.3793,"ARG_OF_PERICENTER":320.9566,"MEAN_ANOMALY":39.0669,"EPHEMERIS_TYPE":0,"CLASSIFICATION_TYPE":"U","NORAD_CAT_ID":33591,"ELEMENT_SET_NO":999,"REV_AT_EPOCH":88013,"BSTAR":6.3599063e-5,"MEAN_MOTION_DOT":7.5e-7,"MEAN_MOTION_DDOT":0},{"OBJECT_NAME":"SUOMI NPP","OBJECT_ID":"2011-061A","EPOCH":"2026-03-07T15:05:19.006944","MEAN_MOTION":14.19542835,"ECCENTRICITY":4.03e-5,"INCLINATION":98.7868,"RA_OF_ASC_NODE":8.2478,"ARG_OF_PERICENTER":247.9771,"MEAN_ANOMALY":112.1362,"EPHEMERIS_TYPE":0,"CLASSIFICATION_TYPE":"U","NORAD_CAT_ID":37849,"ELEMENT_SET_NO":999,"REV_AT_EPOCH":74403,"BSTAR":8.0764184e-5,"MEAN_MOTION_DOT":1.26e-6,"MEAN_MOTION_DDOT":0},{"OBJECT_NAME":"NOAA 20 (JPSS-1)","OBJECT_ID":"2017-073A","EPOCH":"2026-03-07T13:44:55.870368","MEAN_MOTION":14.19535495,"ECCENTRICITY":0.00011298,"INCLINATION":98.769,"RA_OF_ASC_NODE":6.9811,"ARG_OF_PERICENTER":140.6553,"MEAN_ANOMALY":219.4706,"EPHEMERIS_TYPE":0,"CLASSIFICATION_TYPE":"U","NORAD_CAT_ID":43013,"ELEMENT_SET_NO":999,"REV_AT_EPOCH":43005,"BSTAR":8.9000721e-5,"MEAN_MOTION_DOT":1.44e-6,"MEAN_MOTION_DDOT":0},{"OBJECT_NAME":"NOAA 21 (JPSS-2)","OBJECT_ID":"2022-150A","EPOCH":"2026-03-07T14:34:56.636544","MEAN_MOTION":14.19551531,"ECCENTRICITY":0.00026225,"INCLINATION":98.7553,"RA_OF_ASC_NODE":6.8973,"ARG_OF_PERICENTER":109.8293,"MEAN_ANOMALY":250.3166,"EPHEMERIS_TYPE":0,"CLASSIFICATION_TYPE":"U","NORAD_CAT_ID":54234,"ELEMENT_SET_NO":999,"REV_AT_EPOCH":17213,"BSTAR":7.8180972e-5,"MEAN_MOTION_DOT":1.21e-6,"MEAN_MOTION_DDOT":0}]
